ONEWEB-0387             
1 49313U 21090AL  22243.91667824 -.00028678  00000+0 -70775-1 0  9997
2 49313  87.9387 190.0373 0001784  82.0170 197.1805 13.20783442  1304
ONEWEB-0388             
1 49314U 21090AM  22243.91667824  .00018143  00000+0  45199-1 0  9994
2 49314  87.9231 220.2542 0001948  87.0494 200.9969 13.19721427  1300
ONEWEB-0389             
1 50469U 21132A   22243.91667824  .00029479  00000+0  75670-1 0  9995
2 50469  87.9027 281.1493 0001527 113.3313   2.7739 13.17629283  1301
ONEWEB-0390             
1 50470U 21132B   22243.91667824  .00029271  00000+0  75139-1 0  9997
2 50470  87.9029 281.1491 0001470 105.0926   3.5995 13.17627522  1305
ONEWEB-0391             
1 50471U 21132C   22243.91667824  .00029084  00000+0  74656-1 0  9993
2 50471  87.9029 281.1209 0001690 107.1552 354.3515 13.17630402  1301
ONEWEB-0392             
1 50472U 21132D   22243.91667824  .00028635  00000+0  73506-1 0  9998
2 50472  87.9041 281.1489 0001694  93.2297 162.1152 13.17631656 36976
ONEWEB-0393             
1 50473U 21132E   22243.91667824  .00029707  00000+0  76245-1 0  9993
2 50473  87.9028 281.1465 0001633  87.1151 135.1768 13.17637034  1308
ONEWEB-0394             
1 50474U 21132F   22243.91667824  .00062901  00000+0  60420-2 0  9996
2 50474  87.2198 268.7494 0004347 124.5640 344.0496 14.92747718  1301
ONEWEB-0395             
1 50475U 21132G   22243.91667824  .00005032  00000+0  14158-1 0  9995
2 50475  87.8960 296.4551 0001655 100.4395 233.7065 13.11403564  1300
ONEWEB-0396             
1 50476U 21132H   22243.91667824  .00061842  00000+0  59429-2 0  9998
2 50476  87.2225 268.8473 0003308  85.5010 146.0558 14.92738532  1308
ONEWEB-0397             
1 50477U 21132J   22243.91667824  .00059994  00000+0  57685-2 0  9996
2 50477  87.2240 268.8751 0005585 116.6562 306.3218 14.92719889  1300
ONEWEB-0398             
1 50478U 21132K   22243.91667824  .00005064  00000+0  14244-1 0  9999
2 50478  87.8866 296.4466 0001308  94.5073  33.1516 13.11414721  1304
ONEWEB-0399             
1 50479U 21132L   22243.91667824  .00003910  00000+0  10992-1 0  9994
2 50479  87.8858 296.4609 0002421  99.3729  91.8238 13.11413371  1305
ONEWEB-0400             
1 50480U 21132M   22243.91667824  .00056983  00000+0  54751-2 0  9996
2 50480  87.2184 268.6875 0004360  98.2374 267.9025 14.92767984  1309
ONEWEB-0401             
1 50481U 21132N   22243.91667824  .00063537  00000+0  61080-2 0  9993
2 50481  87.2207 268.7814 0003710 120.5008  90.0810 14.92713808  1304
ONEWEB-0402             
1 50482U 21132P   22243.91667824  .00057073  00000+0  54829-2 0  9995
2 50482  87.2214 268.7933 0004117 119.4641 249.4586 14.92774760  1301
ONEWEB-0403             
1 50483U 21132Q   22243.91667824  .00059990  00000+0  57703-2 0  9990
2 50483  87.2188 268.7147 0002591 124.6979 297.2648 14.92712492  1309
ONEWEB-0404             
1 50484U 21132R   22243.91667824  .00004627  00000+0  13016-1 0  9996
2 50484  87.8813 296.4238 0002082 122.4245 190.5744 13.11403596  1301
ONEWEB-0405             
1 50485U 21132S   22243.91667824  .00055038  00000+0  52901-2 0  9996
2 50485  87.2961 270.8165 0004547  76.8436 271.7847 14.92764088  1309
ONEWEB-0406             
1 50486U 21132T   22243.91667824  .00061530  00000+0  59091-2 0  9998
2 50486  87.2229 268.8508 0006483  86.8524 149.0520 14.92755242  1302
ONEWEB-0407             
1 50487U 21132U   22243.91667824  .00064826  00000+0  62258-2 0  9999
2 50487  87.2152 268.5983 0005623  77.5702  68.1999 14.92739993  1308
ONEWEB-0409             
1 50488U 21132V   22243.91667824  .00004084  00000+0  11483-1 0  9993
2 50488  87.8731 296.4443 0001688 117.5202 169.0251 13.11405123  1303
ONEWEB-0412             
1 50489U 21132W   22243.91667824  .00057529  00000+0  55251-2 0  9998
2 50489  87.2198 268.7534 0004404 100.8026 277.8418 14.92782889  1306
ONEWEB-0413             
1 50490U 21132X   22243.91667824  .00062758  00000+0  60223-2 0  9995
2 50490  87.2141 268.5463 0004171 125.1461 337.8659 14.92788429  1309
ONEWEB-0414             
1 50491U 21132Y   22243.91667824  .00064315  00000+0  61737-2 0  9998
2 50491  87.2182 268.6939 0005782  82.2358  53.1356 14.92761260  1307
ONEWEB-0417             
1 50492U 21132Z   22243.91667824  .00064683  00000+0  62123-2 0  9997
2 50492  87.2212 268.7940 0006480  81.1046 104.9897 14.92735708  1306
ONEWEB-0418             
1 50493U 21132AA  22243.91667824  .00062993  00000+0  60500-2 0  9997
2 50493  87.2250 268.9088 0005570 114.1490 354.1776 14.92748706  1300
ONEWEB-0419             
1 50494U 21132AB  22243.91667824  .00057575  00000+0  55321-2 0  9993
2 50494  87.2127 268.5359 0005472  77.7801 214.7572 14.92760547  1304
ONEWEB-0420             
1 50495U 21132AC  22243.91667824  .00057857  00000+0  55583-2 0  9997
2 50495  87.2070 268.3549 0004323 126.3757 166.2698 14.92769300  1302
ONEWEB-0421             
1 50496U 21132AD  22243.91667824 -.00014065  00000+0 -13696-2 0  9993
2 50496  87.2108 268.4547 0003354 138.9869  40.5277 14.92747071  1308
ONEWEB-0424             
1 50497U 21132AE  22243.91667824  .00063977  00000+0  61426-2 0  9992
2 50497  87.2281 268.9881 0005030 102.2573  32.3978 14.92757600  1302
ONEWEB-0426             
1 50498U 21132AF  22243.91667824  .00060173  00000+0  57850-2 0  9994
2 50498  87.2152 268.5992 0003366  99.1543 323.8363 14.92730543  1303
ONEWEB-0427             
1 50499U 21132AG  22243.91667824  .00056633  00000+0  54379-2 0  9994
2 50499  87.2082 268.3894 0003788  71.8009 248.3072 14.92798094  1300
ONEWEB-0429             
1 50500U 21132AH  22243.91667824  .00079626  00000+0  76332-2 0  9997
2 50500  87.2121 268.4885 0004261 121.6643 304.9913 14.92735669  1305
ONEWEB-0430             
1 50501U 21132AJ  22243.91667824  .00056553  00000+0  54332-2 0  9998
2 50501  87.2253 268.9291 0005304  89.3881 268.3898 14.92771853  1301
ONEWEB-0432             
1 50502U 21132AK  22243.91667824  .00057882  00000+0  55609-2 0  9993
2 50502  87.2101 268.4518 0004974 135.7855 154.1744 14.92765303  1305
ONEWEB-0440             
1 50503U 21132AL  22243.91667824  .00057410  00000+0  55139-2 0  9999
2 50503  87.2141 268.5533 0003942 119.2937 254.8128 14.92783331  1305
ONEWEB-0450             
1 50504U 21132AM  22243.91667824  .00064086  00000+0  61587-2 0  9991
2 50504  87.2233 268.8599 0004786  98.1762 100.4080 14.92721537  1304
ONEWEB-0410             
1 51622U 22012A   22243.91667824  .00025690  00000+0  23987-2 0  9991
2 51622  87.1824 289.3279 0004232 103.9878 106.6506 14.94057120  1306
ONEWEB-0411             
1 51623U 22012B   22243.91667824 -.00018300  00000+0 -52563-1 0  9995
2 51623  87.8781 311.7352 0001461 114.5073  16.5421 13.10374670  1308
ONEWEB-0415             
1 51624U 22012C   22243.91667824 -.00018235  00000+0 -52376-1 0  9995
2 51624  87.8846 311.7189 0001414  90.5187  55.2926 13.10372919  1300
ONEWEB-0416             
1 51625U 22012D   22243.91667824 -.00018483  00000+0 -53086-1 0  9990
2 51625  87.8812 311.7078 0002007  93.4134   0.9151 13.10377718  1303
ONEWEB-0422             
1 51626U 22012E   22243.91667824  .00022549  00000+0  21043-2 0  9996
2 51626  87.2383 290.6449 0001691  44.9512  28.4631 14.94096502 31557
ONEWEB-0423             
1 51627U 22012F   22243.91667824  .00025731  00000+0  24051-2 0  9995
2 51627  87.1837 289.3648 0003334  85.6597 115.5249 14.94017644  1301
ONEWEB-0425             
1 51628U 22012G   22243.91667824 -.00018765  00000+0 -53903-1 0  9994
2 51628  87.8833 311.7157 0002476 109.8137 300.5597 13.10371610  1300
ONEWEB-0428             
1 51629U 22012H   22243.91667824 -.00018264  00000+0 -52462-1 0  9998
2 51629  87.8822 311.7118 0002397  84.7541  53.6796 13.10370733  1300
ONEWEB-0431             
1 51630U 22012J   22243.91667824 -.00018844  00000+0 -54125-1 0  9992
2 51630  87.8820 311.6776 0001622  68.8941 297.4310 13.10378554  1305
ONEWEB-0434             
1 51631U 22012K   22243.91667824 -.00018817  00000+0 -54048-1 0  9997
2 51631  87.8839 311.6982 0002204  85.0387 310.5990 13.10377173  1304
ONEWEB-0435             
1 51632U 22012L   22243.91667824 -.00018797  00000+0 -53988-1 0  9997
2 51632  87.8778 311.6588 0002460  78.1565 273.4868 13.10377339  1309
ONEWEB-0436             
1 51633U 22012M   22243.91667824  .00108601  00000+0  10038-1 0  9999
2 51633  87.1794 289.2697 0003995 119.2925 222.5927 14.94021655  1304
ONEWEB-0438             
1 51634U 22012N   22243.91667824 -.00018553  00000+0 -53290-1 0  9995
2 51634  87.8783 311.6556 0002175 104.9844 327.4604 13.10373888  1306
ONEWEB-0439             
1 51635U 22012P   22243.91667824 -.00018690  00000+0 -53683-1 0  9994
2 51635  87.8802 311.6903 0001943  96.5690 321.1850 13.10375187  1300
ONEWEB-0442             
1 51636U 22012Q   22243.91667824  .00023760  00000+0  22175-2 0  9990
2 51636  87.1774 289.2111 0002670  63.1247 338.5684 14.94087415  1303
ONEWEB-0443             
1 51637U 22012R   22243.91667824  .00022348  00000+0  20858-2 0  9998
2 51637  87.1794 289.2718 0005162  97.7856 240.0067 14.94082577  1303
ONEWEB-0444             
1 51638U 22012S   22243.91667824 -.00018427  00000+0 -52930-1 0  9999
2 51638  87.8823 311.6990 0002119  94.1687   7.6243 13.10373154  1302
ONEWEB-0445             
1 51639U 22012T   22243.91667824 -.00018859  00000+0 -54165-1 0  9991
2 51639  87.8819 311.6993 0001476 114.1811 244.7241 13.10380997  1303
ONEWEB-0446             
1 51640U 22012U   22243.91667824 -.00018398  00000+0 -52844-1 0  9993
2 51640  87.8825 311.7108 0001631  97.7242  11.3976 13.10373937  1307
ONEWEB-0448             
1 51641U 22012V   22243.91667824 -.00018528  00000+0 -53222-1 0  9990
2 51641  87.8820 311.7090 0002111  93.9151 353.1282 13.10368200  1308
ONEWEB-0449             
1 51642U 22012W   22243.91667824 -.00018655  00000+0 -53585-1 0  9994
2 51642  87.8836 311.7015 0002105 112.6071 312.4058 13.10374202  1304
